XRISM                   
1 57800U 23137A   24218.02328548  .00012545  00000+0  93230-3 0  9991
2 57800  31.0036  61.6116 0010000 333.1320  26.8797 15.01792514 50034
